{
    "links": {
        "self": "http://www.neowsapp.com/rest/v1/neo/54098025?api_key=iIulBulltgU6a56xZRHN4H3l9WmuAYTsLGpBGhQ2"
    },
    "id": "54098025",
    "neo_reference_id": "54098025",
    "name": "(2020 XQ1)",
    "designation": "2020 XQ1",
    "nasa_jpl_url": "http://ssd.jpl.nasa.gov/sbdb.cgi?sstr=54098025",
    "absolute_magnitude_h": 25.803,
    "estimated_diameter": {
        "kilometers": {
            "estimated_diameter_min": 0.0183634796,
            "estimated_diameter_max": 0.0410619887
        },
        "meters": {
            "estimated_diameter_min": 18.3634795893,
            "estimated_diameter_max": 41.0619886651
        },
        "miles": {
            "estimated_diameter_min": 0.0114105337,
            "estimated_diameter_max": 0.025514729
        },
        "feet": {
            "estimated_diameter_min": 60.2476383758,
            "estimated_diameter_max": 134.717814892
        }
    },
    "is_potentially_hazardous_asteroid": false,
    "close_approach_data": [
        {
            "close_approach_date": "1902-06-29",
            "close_approach_date_full": "1902-Jun-29 15:32",
            "epoch_date_close_approach": -2130395280000,
            "relative_velocity": {
                "kilometers_per_second": "34.69953811",
                "kilometers_per_hour": "124918.3371960922",
                "miles_per_hour": "77619.3967983163"
            },
            "miss_distance": {
                "astronomical": "0.4616462335",
                "lunar": "179.5803848315",
                "kilometers": "69061293.225122645",
                "miles": "42912697.721856701"
            },
            "orbiting_body": "Earth"
        },
        {
            "close_approach_date": "2020-12-11",
            "close_approach_date_full": "2020-Dec-11 04:53",
            "epoch_date_close_approach": 1607662380000,
            "relative_velocity": {
                "kilometers_per_second": "20.5641848238",
                "kilometers_per_hour": "74031.0653656739",
                "miles_per_hour": "46000.0250323544"
            },
            "miss_distance": {
                "astronomical": "0.0217560927",
                "lunar": "8.4631200603",
                "kilometers": "3254665.127442549",
                "miles": "2022355.1323392162"
            },
            "orbiting_body": "Earth"
        },
        {
            "close_approach_date": "2022-06-29",
            "close_approach_date_full": "2022-Jun-29 20:56",
            "epoch_date_close_approach": 1656536160000,
            "relative_velocity": {
                "kilometers_per_second": "6.3924517266",
                "kilometers_per_hour": "23012.8262158036",
                "miles_per_hour": "14299.2752672586"
            },
            "miss_distance": {
                "astronomical": "1.6371952393",
                "lunar": "636.8689480877",
                "kilometers": "244920920.573420291",
                "miles": "152186803.0484943758"
            },
            "orbiting_body": "Juptr"
        }
    ],
    "orbital_data": {
        "orbit_id": "1",
        "orbit_determination_date": "2020-12-07 23:42:03",
        "first_observation_date": "2020-12-06",
        "last_observation_date": "2020-12-08",
        "data_arc_in_days": 2,
        "observations_used": 15,
        "orbit_uncertainty": "9",
        "minimum_orbit_intersection": ".0139918",
        "jupiter_tisserand_invariant": "3.368",
        "epoch_osculation": "2459190.5",
        "eccentricity": ".7179959799637508",
        "semi_major_axis": "2.093826645110878",
        "inclination": "2.039811806236613",
        "ascending_node_longitude": "233.1181102029984",
        "orbital_period": "1106.648016845806",
        "perihelion_distance": ".5904675311802806",
        "perihelion_argument": "292.9093322676311",
        "aphelion_distance": "3.597185759041476",
        "perihelion_time": "2459239.877693037143",
        "mean_anomaly": "343.937106267956",
        "mean_motion": ".3253066869681656",
        "equinox": "J2000",
        "orbit_class": {
            "orbit_class_type": "APO",
            "orbit_class_description": "Near-Earth asteroid orbits which cross the Earth’s orbit similar to that of 1862 Apollo",
            "orbit_class_range": "a (semi-major axis) > 1.0 AU; q (perihelion) < 1.017 AU"
        }
    },
    "is_sentry_object": false
}